ONEWEB-0331             
1 49198U 21083N   24203.20919486  .00000432  00000+0  10618-2 0  9991
2 49198  87.9147 114.0110 0002201  83.0581 277.0801 13.18682171139564
ONEWEB-0333             
1 49199U 21083P   24203.25816260  .00000062  00000+0  13430-3 0  9998
2 49199  87.8923  98.7763 0001881  72.6783 287.4552 13.13471114140848
ONEWEB-0334             
1 49200U 21083Q   24203.13268362  .00000056  00000+0  10576-3 0  9993
2 49200  87.9177  52.9531 0002492  60.8272 299.3110 13.20856207146205
ONEWEB-0335             
1 49201U 21083R   24203.25340008  .00000226  00000+0  58504-3 0  9997
2 49201  87.8924  98.7657 0001713  79.1939 280.9382 13.13468764140851
ONEWEB-0336             
1 49202U 21083S   24203.22323269 -.00000050  00000+0 -17199-3 0  9997
2 49202  87.8920  98.7676 0001972  74.2350 285.8997 13.13469824140853
ONEWEB-0337             
1 49203U 21083T   24203.23263938  .00000357  00000+0  94151-3 0  9996
2 49203  87.8921  98.7643 0001798  79.5680 280.5652 13.13470349140853
ONEWEB-0338             
1 49204U 21083U   24203.51842909  .00000082  00000+0  16975-3 0  9992
2 49204  87.9183  52.8618 0001624  72.0119 288.1191 13.20770445146284
ONEWEB-0339             
1 49205U 21083V   24203.24387748  .00000365  00000+0  96568-3 0  9998
2 49205  87.8920  98.7569 0001718  77.8142 282.3179 13.13470450140832
